FENGYUN 1C DEB          
1 33738U 99025DJB 17346.46363118  .00000278  00000-0  20606-3 0  9996
2 33738  99.3530 336.6488 0196868  53.6712  96.6391 13.94517489484635
